{"type": "FeatureCollection", "features": [ {"type": "Feature", "properties": {"norad_id": 31513, "name": "FENGYUN 1C DEB", "group": "fengyun-1c-debris", "lat": -26.216762377474826, "lon": 90.67543625712153, "alt_km": 804.9055309775795, "timestamp": "2025-12-15T11:38:37.436608+00:00", "meta": {"OBJECT_NAME": "FENGYUN 1C DEB", "OBJECT_ID": "1999-025BXC", "EPOCH": "2025-11-25T02:15:23.832576", "MEAN_MOTION": 14.32315683, "ECCENTRICITY": 0.00282412, "INCLINATION": 98.8622, "RA_OF_ASC_NODE": 65.435, "ARG_OF_PERICENTER": 176.3464, "MEAN_ANOMALY": 183.7931, "EPHEMERIS_TYPE": 0, "CLASSIFICATION_TYPE": "U", "NORAD_CAT_ID": 31513, "ELEMENT_SET_NO": 999, "REV_AT_EPOCH": 72616, "BSTAR": 0.0023967664, "MEAN_MOTION_DOT": 6.459e-05, "MEAN_MOTION_DDOT": 0}, "tle": {"line1": "1 31513U 99025BXC 25329.09402584  .00006459  00000+0  23968-2 0  9994", "line2": "2 31513  98.8622  65.4350 0028241 176.3464 183.7931 14.32315683726161"}}, "geometry": {"type": "Point", "coordinates": [90.67543625712153, -26.216762377474826]}}, {"type": "Feature", "properties": {"norad_id": 31514, "name": "FENGYUN 1C DEB", "group": "fengyun-1c-debris", "lat": 43.63430666437502, "lon": 79.29189142924206, "alt_km": 784.6664355687872, "timestamp": "2025-12-15T11:38:37.436619+00:00", "meta": {"OBJECT_NAME": "FENGYUN 1C DEB", "OBJECT_ID": "1999-025BXD", "EPOCH": "2025-12-14T23:10:58.038528", "MEAN_MOTION": 14.2100027, "ECCENTRICITY": 0.00529908, "INCLINATION": 99.2476, "RA_OF_ASC_NODE": 249.8126, "ARG_OF_PERICENTER": 108.5246, "MEAN_ANOMALY": 252.1697, "EPHEMERIS_TYPE": 0, "CLASSIFICATION_TYPE": "U", "NORAD_CAT_ID": 31514, "ELEMENT_SET_NO": 999, "REV_AT_EPOCH": 69356, "BSTAR": 0.0012349197, "MEAN_MOTION_DOT": 2.668e-05, "MEAN_MOTION_DDOT": 0}, "tle": {"line1": "1 31514U 99025BXD 25348.96594952  .00002668  00000+0  12349-2 0  9992", "line2": "2 31514  99.2476 249.8126 0052990 108.5246 252.1697 14.21000270693564"}}, "geometry": {"type": "Point", "coordinates": [79.29189142924206, 43.63430666437502]}}, {"type": "Feature", "properties": {"norad_id": 31516, "name": "FENGYUN 1C DEB", "group": "fengyun-1c-debris", "lat": 33.12635360741363, "lon": -68.7710843260927, "alt_km": 792.7825432555046, "timestamp": "2025-12-15T11:38:37.436629+00:00", "meta": {"OBJECT_NAME": "FENGYUN 1C DEB", "OBJECT_ID": "1999-025BXF", "EPOCH": "2025-12-14T18:50:32.572608", "MEAN_MOTION": 14.25415754, "ECCENTRICITY": 0.01484845, "INCLINATION": 98.8325, "RA_OF_ASC_NODE": 104.7004, "ARG_OF_PERICENTER": 232.6261, "MEAN_ANOMALY": 285.084, "EPHEMERIS_TYPE": 0, "CLASSIFICATION_TYPE": "U", "NORAD_CAT_ID": 31516, "ELEMENT_SET_NO": 999, "REV_AT_EPOCH": 96521, "BSTAR": 0.00055959809, "MEAN_MOTION_DOT": 1.434e-05, "MEAN_MOTION_DDOT": 0}, "tle": {"line1": "1 31516U 99025BXF 25348.78509922  .00001434  00000+0  55960-3 0  9994", "line2": "2 31516  98.8325 104.7004 0148484 232.6261 285.0840 14.25415754965218"}}, "geometry": {"type": "Point", "coordinates": [-68.7710843260927, 33.12635360741363]}}, {"type": "Feature", "properties": {"norad_id": 31519, "name": "FENGYUN 1C DEB", "group": "fengyun-1c-debris", "lat": -66.20366274595862, "lon": 145.96018428242942, "alt_km": 784.8233175000778, "timestamp": "2025-12-15T11:38:37.436638+00:00", "meta": {"OBJECT_NAME": "FENGYUN 1C DEB", "OBJECT_ID": "1999-025BXJ", "EPOCH": "2025-12-11T05:15:28.850688", "MEAN_MOTION": 14.23393679, "ECCENTRICITY": 0.00516578, "INCLINATION": 98.5728, "RA_OF_ASC_NODE": 341.8077, "ARG_OF_PERICENTER": 247.2921, "MEAN_ANOMALY": 112.2792, "EPHEMERIS_TYPE": 0, "CLASSIFICATION_TYPE": "U", "NORAD_CAT_ID": 31519, "ELEMENT_SET_NO": 999, "REV_AT_EPOCH": 64743, "BSTAR": 0.00064828681, "MEAN_MOTION_DOT": 1.448e-05, "MEAN_MOTION_DDOT": 0}, "tle": {"line1": "1 31519U 99025BXJ 25345.21908392  .00001448  00000+0  64829-3 0  9995", "line2": "2 31519  98.5728 341.8077 0051657 247.2921 112.2792 14.23393679647436"}}, "geometry": {"type": "Point", "coordinates": [145.96018428242942, -66.20366274595862]}}, {"type": "Feature", "properties": {"norad_id": 31522, "name": "FENGYUN 1C DEB", "group": "fengyun-1c-debris", "lat": 48.12545374392664, "lon": -162.57564607469584, "alt_km": 860.5224306526216, "timestamp": "2025-12-15T11:38:37.436648+00:00", "meta": {"OBJECT_NAME": "FENGYUN 1C DEB", "OBJECT_ID": "1999-025BXM", "EPOCH": "2025-12-14T12:47:04.126560", "MEAN_MOTION": 14.04002542, "ECCENTRICITY": 0.00431671, "INCLINATION": 98.7079, "RA_OF_ASC_NODE": 6.6679, "ARG_OF_PERICENTER": 195.1679, "MEAN_ANOMALY": 164.8197, "EPHEMERIS_TYPE": 0, "CLASSIFICATION_TYPE": "U", "NORAD_CAT_ID": 31522, "ELEMENT_SET_NO": 999, "REV_AT_EPOCH": 95021, "BSTAR": 0.00052833518, "MEAN_MOTION_DOT": 8e-06, "MEAN_MOTION_DDOT": 0}, "tle": {"line1": "1 31522U 99025BXM 25348.53268665  .00000800  00000+0  52834-3 0  9993", "line2": "2 31522  98.7079   6.6679 0043167 195.1679 164.8197 14.04002542950213"}}, "geometry": {"type": "Point", "coordinates": [-162.57564607469584, 48.12545374392664]}}, {"type": "Feature", "properties": {"norad_id": 31523, "name": "FENGYUN 1C DEB", "group": "fengyun-1c-debris", "lat": 71.23565906832069, "lon": 9.991957279839061, "alt_km": 814.3180835634548, "timestamp": "2025-12-15T11:38:37.436658+00:00", "meta": {"OBJECT_NAME": "FENGYUN 1C DEB", "OBJECT_ID": "1999-025BXN", "EPOCH": "2025-12-13T22:31:13.253376", "MEAN_MOTION": 14.13860124, "ECCENTRICITY": 0.00394373, "INCLINATION": 98.7572, "RA_OF_ASC_NODE": 35.459, "ARG_OF_PERICENTER": 106.7053, "MEAN_ANOMALY": 18.1982, "EPHEMERIS_TYPE": 0, "CLASSIFICATION_TYPE": "U", "NORAD_CAT_ID": 31523, "ELEMENT_SET_NO": 999, "REV_AT_EPOCH": 96024, "BSTAR": 3.0553174e-05, "MEAN_MOTION_DOT": 1.5e-07, "MEAN_MOTION_DDOT": 0}, "tle": {"line1": "1 31523U 99025BXN 25347.93834784  .00000015  00000+0  30553-4 0  9991", "line2": "2 31523  98.7572  35.4590 0039437 106.7053  18.1982 14.13860124960248"}}, "geometry": {"type": "Point", "coordinates": [9.991957279839061, 71.23565906832069]}}, {"type": "Feature", "properties": {"norad_id": 31527, "name": "FENGYUN 1C DEB", "group": "fengyun-1c-debris", "lat": -22.963348128977984, "lon": 158.46447780475594, "alt_km": 922.1733277968915, "timestamp": "2025-12-15T11:38:37.436669+00:00", "meta": {"OBJECT_NAME": "FENGYUN 1C DEB", "OBJECT_ID": "1999-025BXS", "EPOCH": "2025-12-13T21:39:09.060480", "MEAN_MOTION": 13.23403725, "ECCENTRICITY": 0.04500793, "INCLINATION": 98.8924, "RA_OF_ASC_NODE": 153.3063, "ARG_OF_PERICENTER": 297.5489, "MEAN_ANOMALY": 58.059, "EPHEMERIS_TYPE": 0, "CLASSIFICATION_TYPE": "U", "NORAD_CAT_ID": 31527, "ELEMENT_SET_NO": 999, "REV_AT_EPOCH": 90205, "BSTAR": 0.00080308436, "MEAN_MOTION_DOT": 5.44e-06, "MEAN_MOTION_DDOT": 0}, "tle": {"line1": "1 31527U 99025BXS 25347.90218820  .00000544  00000+0  80308-3 0  9998", "line2": "2 31527  98.8924 153.3063 0450079 297.5489  58.0590 13.23403725902053"}}, "geometry": {"type": "Point", "coordinates": [158.46447780475594, -22.963348128977984]}}, {"type": "Feature", "properties": {"norad_id": 31531, "name": "FENGYUN 1C DEB", "group": "fengyun-1c-debris", "lat": -81.55431930424457, "lon": 130.95874532204596, "alt_km": 607.2786460992347, "timestamp": "2025-12-15T11:38:37.436681+00:00", "meta": {"OBJECT_NAME": "FENGYUN 1C DEB", "OBJECT_ID": "1999-025BXW", "EPOCH": "2025-12-14T09:17:36.216672", "MEAN_MOTION": 14.35661641, "ECCENTRICITY": 0.02443729, "INCLINATION": 98.3822, "RA_OF_ASC_NODE": 33.1155, "ARG_OF_PERICENTER": 263.6968, "MEAN_ANOMALY": 93.6335, "EPHEMERIS_TYPE": 0, "CLASSIFICATION_TYPE": "U", "NORAD_CAT_ID": 31531, "ELEMENT_SET_NO": 999, "REV_AT_EPOCH": 63958, "BSTAR": 0.00099652161, "MEAN_MOTION_DOT": 3.989e-05, "MEAN_MOTION_DDOT": 0}, "tle": {"line1": "1 31531U 99025BXW 25348.38722473  .00003989  00000+0  99652-3 0  9998", "line2": "2 31531  98.3822  33.1155 0244372 263.6968  93.6335 14.35661641639584"}}, "geometry": {"type": "Point", "coordinates": [130.95874532204596, -81.55431930424457]}}, {"type": "Feature", "properties": {"norad_id": 31533, "name": "FENGYUN 1C DEB", "group": "fengyun-1c-debris", "lat": -4.726511753881471, "lon": -117.54824094621891, "alt_km": 757.4234541992091, "timestamp": "2025-12-15T11:38:37.436691+00:00", "meta": {"OBJECT_NAME": "FENGYUN 1C DEB", "OBJECT_ID": "1999-025BXY", "EPOCH": "2025-12-14T10:26:06.784800", "MEAN_MOTION": 14.27632223, "ECCENTRICITY": 0.00655487, "INCLINATION": 98.9606, "RA_OF_ASC_NODE": 240.6277, "ARG_OF_PERICENTER": 344.6757, "MEAN_ANOMALY": 15.2437, "EPHEMERIS_TYPE": 0, "CLASSIFICATION_TYPE": "U", "NORAD_CAT_ID": 31533, "ELEMENT_SET_NO": 999, "REV_AT_EPOCH": 66147, "BSTAR": 0.00052655667, "MEAN_MOTION_DOT": 1.28e-05, "MEAN_MOTION_DDOT": 0}, "tle": {"line1": "1 31533U 99025BXY 25348.43480075  .00001280  00000+0  52656-3 0  9990", "line2": "2 31533  98.9606 240.6277 0065548 344.6757  15.2437 14.27632223661475"}}, "geometry": {"type": "Point", "coordinates": [-117.54824094621891, -4.726511753881471]}}, {"type": "Feature", "properties": {"norad_id": 31535, "name": "FENGYUN 1C DEB", "group": "fengyun-1c-debris", "lat": -21.339499367009417, "lon": -157.64259819283353, "alt_km": 865.2563782796242, "timestamp": "2025-12-15T11:38:37.436701+00:00", "meta": {"OBJECT_NAME": "FENGYUN 1C DEB", "OBJECT_ID": "1999-025BYA", "EPOCH": "2025-12-08T20:01:31.264032", "MEAN_MOTION": 14.28309987, "ECCENTRICITY": 0.00876599, "INCLINATION": 98.0348, "RA_OF_ASC_NODE": 193.0693, "ARG_OF_PERICENTER": 174.5726, "MEAN_ANOMALY": 185.6428, "EPHEMERIS_TYPE": 0, "CLASSIFICATION_TYPE": "U", "NORAD_CAT_ID": 31535, "ELEMENT_SET_NO": 999, "REV_AT_EPOCH": 71875, "BSTAR": 0.0012494375, "MEAN_MOTION_DOT": 3.212e-05, "MEAN_MOTION_DDOT": 0}, "tle": {"line1": "1 31535U 99025BYA 25342.83438963  .00003212  00000+0  12494-2 0  9991", "line2": "2 31535  98.0348 193.0693 0087659 174.5726 185.6428 14.28309987718752"}}, "geometry": {"type": "Point", "coordinates": [-157.64259819283353, -21.339499367009417]}}]}